{
	"type": "FeatureCollection",
	"crs": {
		"type": "name",
		"properties": {
			"name": "urn:ogc:def:crs:OGC:1.3:CRS84"
		}
	},
	"features": [{
		"type": "Feature",
		"properties": {
			"name": "NONE",
			"stroke-opacity": 0.3,
			"fill-opacity": 0.2,
			"title": "Lewa swamp",
			"stroke": "#809848",
			"stroke-width": 1.0,
			"fill": "#809848",
			"SWAMP_ID": 1,
			"ACRES": 186.933000,
			"HECTARES": 75.649000
			},
		"geometry": {
			"type": "Polygon",
			"coordinates": [[[37.455076442314983,
			0.201367406975296],
			[37.454304841235071,
			0.203504148427345],
			[37.454779672668863,
			0.205403474162499],
			[37.454948425292208,
			0.206963941454898],
			[37.454879760741434,
			0.208293527364742],
			[37.45543256589032,
			0.209380187420479],
			[37.456204166970231,
			0.210448558146503],
			[37.456619644474799,
			0.211576282801751],
			[37.456916414120919,
			0.212525945669328],
			[37.456857060191702,
			0.213238192820011],
			[37.457391245554703,
			0.214069147829141],
			[37.457747369130054,
			0.214722041050601],
			[37.458222200563839,
			0.215078164625942],
			[37.459231217360646,
			0.214900102838271],
			[37.459646694865199,
			0.214900102838271],
			[37.460715065591231,
			0.21454397926293],
			[37.46130860488347,
			0.21454397926293],
			[37.46190214417571,
			0.214069147829141],
			[37.462673745255621,
			0.213475608536906],
			[37.462970514901734,
			0.213060131032341],
			[37.462733099184838,
			0.212585299598552],
			[37.461664728458814,
			0.212347883881658],
			[37.460715065591231,
			0.211042097438739],
			[37.46000281844055,
			0.209558249208149],
			[37.459646694865199,
			0.208727294199019],
			[37.459468633077535,
			0.207599569543771],
			[37.459349925219087,
			0.206293783100853],
			[37.459527987006759,
			0.205284766304052],
			[37.459409279148304,
			0.204513165224145],
			[37.459112509502191,
			0.203385440568897],
			[37.45899380164375,
			0.201842238409084],
			[37.458340908422286,
			0.201664176621414],
			[37.457509953413158,
			0.201782884479861],
			[37.456026105182559,
			0.201248699116849],
			[37.455076442314983,
			0.201367406975296]]]
		}
	}]
}
