{
	"type": "FeatureCollection",
	"features": [{
		"type": "Feature",
		"properties": {
			"name": "NONE",
			"stroke-opacity": 0.7,
			"fill-opacity": 0,
			"title": "Lewa patrol blocks",
			"stroke": "#cacaca",
			"stroke-width": 3,
			"fill": "#555555",
			"PatrolName": "NONE"
		},
		"geometry": {
			"type": "Polygon",
			"coordinates": [[[37.347473144530234,
			0.184326171875],
			[37.349487304686484,
			0.17828369140625],
			[37.350708007811491,
			0.1746826171875],
			[37.352294921873998,
			0.1693115234375],
			[37.352111816405248,
			0.16510009765625],
			[37.351318359373991,
			0.16229248046875],
			[37.351684570311491,
			0.15887451171875],
			[37.352111816405241,
			0.15289306640625],
			[37.353515624998998,
			0.146484375],
			[37.331115722655184,
			0.14471435546875],
			[37.323120117186413,
			0.151123046875],
			[37.304504394530106,
			0.16827392578125],
			[37.30688476562387,
			0.17132568359375],
			[37.30871582031137,
			0.17388916015625],
			[37.30871582031137,
			0.17730712890625],
			[37.304687499998863,
			0.177490234375],
			[37.301513671873849,
			0.18170166015625],
			[37.303100585936356,
			0.203125],
			[37.332519531248934,
			0.1912841796875],
			[37.347473144530234,
			0.184326171875]]]
		}
	},
	{
		"type": "Feature",
		"properties": {
			"name": "S17",
			"stroke-opacity": 0.7,
			"fill-opacity": 0,
			"title": "Lewa patrol blocks",
			"stroke": "#cacaca",
			"stroke-width": 3,
			"fill": "#555555",
			"PatrolName": "S17"
		},
		"geometry": {
			"type": "Polygon",
			"coordinates": [[[37.498718261718082,
			0.2178955078125],
			[37.492919921874318,
			0.218505859375],
			[37.487487792968068,
			0.2197265625],
			[37.480285644530539,
			0.22210693359375],
			[37.478881835936797,
			0.22509765625],
			[37.480712890624297,
			0.22747802734375],
			[37.486511230468061,
			0.2301025390625],
			[37.489685058593068,
			0.23211669921875],
			[37.492126464843075,
			0.23370361328125],
			[37.493896484374325,
			0.23651123046875],
			[37.491271972655568,
			0.240478515625],
			[37.494079589843075,
			0.24627685546875],
			[37.495117187499332,
			0.25030517578125],
			[37.493286132811818,
			0.25787353515625],
			[37.492919921874318,
			0.26190185546875],
			[37.491699218749318,
			0.264892578125],
			[37.490478515624318,
			0.26849365234375],
			[37.489685058593068,
			0.27410888671875],
			[37.492126464843075,
			0.27349853515625],
			[37.496276855468075,
			0.27252197265625],
			[37.504089355468096,
			0.27008056640625],
			[37.510498046874361,
			0.2686767578125],
			[37.521484374999382,
			0.2655029296875],
			[37.518676757811875,
			0.26190185546875],
			[37.516479492186868,
			0.25848388671875],
			[37.516479492186868,
			0.2554931640625],
			[37.517272949218118,
			0.251708984375],
			[37.517517089843125,
			0.247314453125],
			[37.528686523436889,
			0.24468994140625],
			[37.527099609374389,
			0.24188232421875],
			[37.524475097655632,
			0.23907470703125],
			[37.520690917968132,
			0.235107421875],
			[37.519287109374375,
			0.231689453125],
			[37.515686035155618,
			0.22869873046875],
			[37.513488769530618,
			0.22552490234375],
			[37.510070800780611,
			0.223876953125],
			[37.506530761718103,
			0.222900390625],
			[37.504089355468096,
			0.2213134765625],
			[37.501281738280589,
			0.2197265625],
			[37.498718261718082,
			0.2178955078125]]]
		}
	},
	{
		"type": "Feature",
		"properties": {
			"name": "S18",
			"stroke-opacity": 0.7,
			"fill-opacity": 0,
			"title": "Lewa patrol blocks",
			"stroke": "#cacaca",
			"stroke-width": 3,
			"fill": "#555555",
			"PatrolName": "S18"
		},
		"geometry": {
			"type": "Polygon",
			"coordinates": [[[37.480712890624297,
			0.22747802734375],
			[37.478881835936797,
			0.22509765625],
			[37.480285644530539,
			0.22210693359375],
			[37.487487792968068,
			0.2197265625],
			[37.492919921874318,
			0.218505859375],
			[37.498718261718082,
			0.2178955078125],
			[37.497497558593082,
			0.21527099609375],
			[37.494873046874325,
			0.2125244140625],
			[37.493286132811818,
			0.2081298828125],
			[37.492309570311825,
			0.20367431640625],
			[37.491882324218068,
			0.19891357421875],
			[37.490722656249318,
			0.1959228515625],
			[37.492675781249325,
			0.188720703125],
			[37.493286132811818,
			0.18408203125],
			[37.493103027343068,
			0.1796875],
			[37.494079589843075,
			0.17547607421875],
			[37.496093749999325,
			0.17230224609375],
			[37.491271972655568,
			0.1668701171875],
			[37.486877441405561,
			0.16912841796875],
			[37.480712890624297,
			0.1737060546875],
			[37.475524902343039,
			0.17767333984375],
			[37.469726562499275,
			0.18212890625],
			[37.465270996093011,
			0.18548583984375],
			[37.461914062499254,
			0.1875],
			[37.461914062499254,
			0.19189453125],
			[37.461914062499254,
			0.19610595703125],
			[37.460327148436754,
			0.19927978515625],
			[37.455505371092997,
			0.1978759765625],
			[37.45129394531174,
			0.19873046875],
			[37.443115234374218,
			0.19708251953125],
			[37.436706542967947,
			0.19427490234375],
			[37.43151855468669,
			0.194091796875],
			[37.426330566405426,
			0.19451904296875],
			[37.425903320311676,
			0.19952392578125],
			[37.427917480467933,
			0.20330810546875],
			[37.433471679686697,
			0.20751953125],
			[37.432922363280447,
			0.2122802734375],
			[37.433471679686697,
			0.21807861328125],
			[37.435119628905447,
			0.22247314453125],
			[37.437499999999204,
			0.22552490234375],
			[37.439880371092961,
			0.228271484375],
			[37.440307617186711,
			0.2322998046875],
			[37.441711425780461,
			0.23590087890625],
			[37.444885253905468,
			0.23968505859375],
			[37.448303222655483,
			0.24127197265625],
			[37.450317382811733,
			0.23907470703125],
			[37.45489501953049,
			0.2401123046875],
			[37.460327148436754,
			0.23907470703125],
			[37.463500976561761,
			0.23687744140625],
			[37.466308593749268,
			0.235107421875],
			[37.472717285155532,
			0.2357177734375],
			[37.476074218749289,
			0.23651123046875],
			[37.476928710936789,
			0.23248291015625],
			[37.478088378905539,
			0.2294921875],
			[37.480712890624297,
			0.22747802734375]]]
		}
	},
	{
		"type": "Feature",
		"properties": {
			"name": "S16",
			"stroke-opacity": 0.7,
			"fill-opacity": 0,
			"title": "Lewa patrol blocks",
			"stroke": "#cacaca",
			"stroke-width": 3,
			"fill": "#555555",
			"PatrolName": "S16"
		},
		"geometry": {
			"type": "Polygon",
			"coordinates": [[[37.447692871092976,
			0.24127197265625],
			[37.447082519530468,
			0.24407958984375],
			[37.449279785155483,
			0.25030517578125],
			[37.45129394531174,
			0.25347900390625],
			[37.45349121093674,
			0.25628662109375],
			[37.45452880859299,
			0.25909423828125],
			[37.454284667967997,
			0.26348876953125],
			[37.45349121093674,
			0.26727294921875],
			[37.450927734374233,
			0.2708740234375],
			[37.449707031249233,
			0.273681640625],
			[37.447875976561726,
			0.2777099609375],
			[37.452087402342983,
			0.2830810546875],
			[37.45471191406174,
			0.2852783203125],
			[37.458923339843004,
			0.28350830078125],
			[37.463073730468011,
			0.28167724609375],
			[37.473083496093032,
			0.27789306640625],
			[37.478698730468047,
			0.27667236328125],
			[37.489685058593068,
			0.27410888671875],
			[37.490478515624318,
			0.26849365234375],
			[37.491699218749318,
			0.264892578125],
			[37.492919921874318,
			0.26190185546875],
			[37.493286132811818,
			0.25787353515625],
			[37.495117187499332,
			0.25030517578125],
			[37.494079589843075,
			0.24627685546875],
			[37.491271972655568,
			0.240478515625],
			[37.493896484374325,
			0.23651123046875],
			[37.492126464843075,
			0.23370361328125],
			[37.489685058593068,
			0.23211669921875],
			[37.486511230468061,
			0.2301025390625],
			[37.480712890624297,
			0.22747802734375],
			[37.478088378905539,
			0.2294921875],
			[37.476928710936789,
			0.23248291015625],
			[37.476074218749289,
			0.23651123046875],
			[37.472717285155532,
			0.2357177734375],
			[37.466308593749268,
			0.235107421875],
			[37.463500976561761,
			0.23687744140625],
			[37.460327148436754,
			0.23907470703125],
			[37.45489501953049,
			0.2401123046875],
			[37.450317382811733,
			0.23907470703125],
			[37.447692871092976,
			0.24127197265625]]]
		}
	},
	{
		"type": "Feature",
		"properties": {
			"name": "S14",
			"stroke-opacity": 0.7,
			"fill-opacity": 0,
			"title": "Lewa patrol blocks",
			"stroke": "#cacaca",
        		"stroke-width": 3,			
			"fill": "#555555",
			"PatrolName": "S14"
		},
		"geometry": {
			"type": "Polygon",
			"coordinates": [[[37.439514160155454,
			0.2279052734375],
			[37.434509277342947,
			0.2288818359375],
			[37.428894042967933,
			0.22967529296875],
			[37.423889160155419,
			0.23052978515625],
			[37.418884277342912,
			0.230712890625],
			[37.414672851561647,
			0.230712890625],
			[37.41027832031164,
			0.22808837890625],
			[37.407287597655383,
			0.23309326171875],
			[37.40991210937414,
			0.23828125],
			[37.412902832030397,
			0.24212646484375],
			[37.415893554686654,
			0.2467041015625],
			[37.41229248046789,
			0.2489013671875],
			[37.414306640624147,
			0.25311279296875],
			[37.412902832030397,
			0.25848388671875],
			[37.413696289061647,
			0.261474609375],
			[37.414916992186647,
			0.26531982421875],
			[37.413696289061647,
			0.26910400390625],
			[37.415100097655404,
			0.272705078125],
			[37.414916992186654,
			0.27587890625],
			[37.417114257811654,
			0.279296875],
			[37.415893554686654,
			0.28228759765625],
			[37.417480468749154,
			0.2855224609375],
			[37.417724609374162,
			0.2896728515625],
			[37.420471191405419,
			0.29107666015625],
			[37.424072265624169,
			0.29510498046875],
			[37.43151855468669,
			0.294921875],
			[37.435729980467954,
			0.2930908203125],
			[37.439086914061704,
			0.29168701171875],
			[37.443725585936718,
			0.2896728515625],
			[37.447509765624226,
			0.2880859375],
			[37.45129394531174,
			0.28668212890625],
			[37.45471191406174,
			0.2852783203125],
			[37.452087402342983,
			0.2830810546875],
			[37.447875976561726,
			0.2777099609375],
			[37.449707031249233,
			0.273681640625],
			[37.450927734374233,
			0.2708740234375],
			[37.45349121093674,
			0.26727294921875],
			[37.454284667967997,
			0.26348876953125],
			[37.45452880859299,
			0.25909423828125],
			[37.45349121093674,
			0.25628662109375],
			[37.45129394531174,
			0.25347900390625],
			[37.449279785155483,
			0.25030517578125],
			[37.447082519530468,
			0.24407958984375],
			[37.447692871092976,
			0.24127197265625],
			[37.444885253905468,
			0.23968505859375],
			[37.441711425780461,
			0.23590087890625],
			[37.440307617186711,
			0.2322998046875],
			[37.439514160155454,
			0.2279052734375]]]
		}
	},
	{
		"type": "Feature",
		"properties": {
			"name": "S13",
			"stroke-opacity": 0.7,
			"fill-opacity": 0,
			"title": "Lewa patrol blocks",
			"stroke": "#cacaca",
        		"stroke-width": 3,			
			"fill": "#555555",
			"PatrolName": "S13"
		},
		"geometry": {
			"type": "Polygon",
			"coordinates": [[[37.41229248046789,
			0.2489013671875],
			[37.408325195311633,
			0.24609375],
			[37.403076171874126,
			0.2432861328125],
			[37.397705078124112,
			0.2410888671875],
			[37.393310546874098,
			0.23992919921875],
			[37.386718749999083,
			0.24090576171875],
			[37.383483886717819,
			0.23828125],
			[37.380126953124062,
			0.23468017578125],
			[37.377502441405312,
			0.236083984375],
			[37.376708984374062,
			0.24029541015625],
			[37.370910644530291,
			0.2401123046875],
			[37.370300292967791,
			0.24371337890625],
			[37.367919921874034,
			0.24749755859375],
			[37.363525390624019,
			0.2501220703125],
			[37.364318847655277,
			0.25347900390625],
			[37.367126464842784,
			0.25732421875],
			[37.371887207030298,
			0.259521484375],
			[37.374511718749055,
			0.26171875],
			[37.376525878905312,
			0.26531982421875],
			[37.381530761717819,
			0.26708984375],
			[37.385498046874076,
			0.26531982421875],
			[37.389282226561591,
			0.27008056640625],
			[37.392272949217848,
			0.2730712890625],
			[37.393676757811598,
			0.27569580078125],
			[37.397521972655362,
			0.2786865234375],
			[37.401672363280362,
			0.28167724609375],
			[37.401672363280362,
			0.28729248046875],
			[37.402709960936626,
			0.29327392578125],
			[37.408691406249133,
			0.29412841796875],
			[37.415710449217904,
			0.294677734375],
			[37.419494628905412,
			0.294677734375],
			[37.424072265624169,
			0.29510498046875],
			[37.420471191405419,
			0.29107666015625],
			[37.417724609374162,
			0.2896728515625],
			[37.417480468749154,
			0.2855224609375],
			[37.415893554686654,
			0.28228759765625],
			[37.417114257811654,
			0.279296875],
			[37.414916992186654,
			0.27587890625],
			[37.415100097655404,
			0.272705078125],
			[37.413696289061647,
			0.26910400390625],
			[37.414916992186647,
			0.26531982421875],
			[37.413696289061647,
			0.261474609375],
			[37.412902832030397,
			0.25848388671875],
			[37.414306640624147,
			0.25311279296875],
			[37.41229248046789,
			0.2489013671875]]]
		}
	},
	{
		"type": "Feature",
		"properties": {
			"name": "S12",
			"stroke-opacity": 0.7,
			"fill-opacity": 0,
			"title": "Lewa patrol blocks",
			"stroke": "#cacaca",
        		"stroke-width": 3,			
			"fill": "#555555",
			"PatrolName": "S12"
		},
		"geometry": {
			"type": "Polygon",
			"coordinates": [[[37.427917480467933,
			0.2034912109375],
			[37.424926757811676,
			0.20391845703125],
			[37.421874999999169,
			0.20428466796875],
			[37.416687011717904,
			0.205078125],
			[37.41210937499914,
			0.206298828125],
			[37.406127929686626,
			0.2069091796875],
			[37.399291992186612,
			0.207275390625],
			[37.396728515624112,
			0.20587158203125],
			[37.392272949217848,
			0.20672607421875],
			[37.388488769530333,
			0.20709228515625],
			[37.384277343749076,
			0.207275390625],
			[37.378479003905305,
			0.2078857421875],
			[37.371520996092791,
			0.20849609375],
			[37.366516113280277,
			0.20867919921875],
			[37.365722656249027,
			0.21209716796875],
			[37.358703613280255,
			0.21490478515625],
			[37.355285644530255,
			0.21710205078125],
			[37.355529785155248,
			0.22210693359375],
			[37.358276367186505,
			0.2279052734375],
			[37.365112304686527,
			0.22808837890625],
			[37.368103027342784,
			0.23309326171875],
			[37.370910644530291,
			0.2401123046875],
			[37.376708984374062,
			0.24029541015625],
			[37.377502441405312,
			0.236083984375],
			[37.380126953124062,
			0.23468017578125],
			[37.383483886717819,
			0.23828125],
			[37.386718749999083,
			0.24090576171875],
			[37.393310546874098,
			0.23992919921875],
			[37.397705078124112,
			0.2410888671875],
			[37.403076171874126,
			0.2432861328125],
			[37.408325195311633,
			0.24609375],
			[37.41229248046789,
			0.2489013671875],
			[37.415893554686654,
			0.2467041015625],
			[37.412902832030397,
			0.24212646484375],
			[37.40991210937414,
			0.23828125],
			[37.407287597655383,
			0.23309326171875],
			[37.41027832031164,
			0.22808837890625],
			[37.414672851561647,
			0.230712890625],
			[37.418884277342912,
			0.230712890625],
			[37.423889160155419,
			0.23052978515625],
			[37.428894042967933,
			0.22967529296875],
			[37.434509277342947,
			0.2288818359375],
			[37.439514160155454,
			0.2279052734375],
			[37.437499999999204,
			0.22552490234375],
			[37.435119628905447,
			0.22247314453125],
			[37.433471679686697,
			0.21807861328125],
			[37.432922363280447,
			0.2122802734375],
			[37.433471679686697,
			0.20751953125],
			[37.427917480467933,
			0.2034912109375]]]
		}
	},
	{
		"type": "Feature",
		"properties": {
			"name": "S9",
			"stroke-opacity": 0.7,
			"fill-opacity": 0,
			"title": "Lewa patrol blocks",
			"stroke": "#cacaca",
        		"stroke-width": 3,			
			"fill": "#555555",
			"PatrolName": "S9"
		},
		"geometry": {
			"type": "Polygon",
			"coordinates": [[[37.41168212890539,
			0.13568115234375],
			[37.414123535155397,
			0.1417236328125],
			[37.415100097655404,
			0.1448974609375],
			[37.414489746092897,
			0.148681640625],
			[37.414489746092897,
			0.1536865234375],
			[37.416687011717904,
			0.1571044921875],
			[37.418884277342912,
			0.15972900390625],
			[37.420288085936662,
			0.16387939453125],
			[37.421691894530419,
			0.16790771484375],
			[37.423278808592926,
			0.173095703125],
			[37.426330566405426,
			0.1781005859375],
			[37.425476074217926,
			0.18328857421875],
			[37.423278808592926,
			0.18988037109375],
			[37.426330566405426,
			0.19451904296875],
			[37.43151855468669,
			0.194091796875],
			[37.436706542967947,
			0.19427490234375],
			[37.443115234374218,
			0.19708251953125],
			[37.45129394531174,
			0.19873046875],
			[37.455505371092997,
			0.1978759765625],
			[37.460327148436754,
			0.19927978515625],
			[37.461914062499254,
			0.19610595703125],
			[37.461914062499254,
			0.19189453125],
			[37.461730957030504,
			0.186279296875],
			[37.459106445311754,
			0.1724853515625],
			[37.458923339843004,
			0.16949462890625],
			[37.458496093749254,
			0.16552734375],
			[37.458312988280504,
			0.1624755859375],
			[37.458129882811754,
			0.15869140625],
			[37.457885742186747,
			0.1549072265625],
			[37.457702636717997,
			0.15130615234375],
			[37.457275390624247,
			0.14691162109375],
			[37.457092285155497,
			0.1436767578125],
			[37.456481933592997,
			0.13031005859375],
			[37.446105957030476,
			0.1304931640625],
			[37.43389892578044,
			0.13092041015625],
			[37.421508789061669,
			0.13128662109375],
			[37.41168212890539,
			0.13568115234375]]]
		}
	},
	{
		"type": "Feature",
		"properties": {
			"name": "S11",
			"stroke-opacity": 0.7,
			"fill-opacity": 0,
			"title": "Lewa patrol blocks",
			"stroke": "#cacaca",
        		"stroke-width": 3,			
			"fill": "#555555",
			"PatrolName": "S11"
		},
		"geometry": {
			"type": "Polygon",
			"coordinates": [[[37.416870117186654,
			0.157470703125],
			[37.408874511717883,
			0.16168212890625],
			[37.394714355467855,
			0.16650390625],
			[37.383483886717819,
			0.17047119140625],
			[37.370300292967791,
			0.17608642578125],
			[37.359680175780269,
			0.18109130859375],
			[37.361877441405269,
			0.18450927734375],
			[37.362670898436527,
			0.1903076171875],
			[37.366088867186527,
			0.19091796875],
			[37.373901367186548,
			0.18890380859375],
			[37.380920410155312,
			0.18731689453125],
			[37.383728027342819,
			0.18670654296875],
			[37.388916015624091,
			0.19427490234375],
			[37.394287109374105,
			0.20208740234375],
			[37.396728515624112,
			0.20587158203125],
			[37.399291992186612,
			0.207275390625],
			[37.406127929686626,
			0.2069091796875],
			[37.41210937499914,
			0.206298828125],
			[37.416687011717904,
			0.205078125],
			[37.421874999999169,
			0.20428466796875],
			[37.424926757811676,
			0.20391845703125],
			[37.427917480467933,
			0.2034912109375],
			[37.425903320311676,
			0.19952392578125],
			[37.426330566405426,
			0.19451904296875],
			[37.423278808592926,
			0.18988037109375],
			[37.425476074217926,
			0.18328857421875],
			[37.426330566405426,
			0.1781005859375],
			[37.423278808592926,
			0.173095703125],
			[37.421691894530419,
			0.16790771484375],
			[37.420288085936662,
			0.16387939453125],
			[37.418884277342912,
			0.15972900390625],
			[37.416870117186654,
			0.157470703125]]]
		}
	},
	{
		"type": "Feature",
		"properties": {
			"name": "S10",
			"stroke-opacity": 0.7,
			"fill-opacity": 0,
			"title": "Lewa patrol blocks",
			"stroke": "#cacaca",
        		"stroke-width": 3,			
			"fill": "#555555",
			"PatrolName": "S10"
		},
		"geometry": {
			"type": "Polygon",
			"coordinates": [[[37.353515624998998,
			0.146484375],
			[37.352111816405241,
			0.15289306640625],
			[37.351684570311491,
			0.15887451171875],
			[37.351318359373991,
			0.16229248046875],
			[37.352111816405248,
			0.16510009765625],
			[37.352294921873998,
			0.1693115234375],
			[37.350708007811491,
			0.1746826171875],
			[37.349487304686484,
			0.17828369140625],
			[37.347473144530234,
			0.184326171875],
			[37.350097656248991,
			0.18450927734375],
			[37.356079101561498,
			0.1824951171875],
			[37.359680175780269,
			0.18109130859375],
			[37.370300292967791,
			0.17608642578125],
			[37.383483886717819,
			0.17047119140625],
			[37.394714355467855,
			0.16650390625],
			[37.408874511717883,
			0.16168212890625],
			[37.416870117186654,
			0.157470703125],
			[37.414489746092897,
			0.1536865234375],
			[37.414489746092897,
			0.148681640625],
			[37.415100097655404,
			0.1448974609375],
			[37.414123535155397,
			0.1417236328125],
			[37.41168212890539,
			0.13568115234375],
			[37.398498535155355,
			0.14129638671875],
			[37.387084960936583,
			0.1461181640625],
			[37.363281249999019,
			0.14691162109375],
			[37.358276367186505,
			0.14691162109375],
			[37.353515624998998,
			0.146484375]]]
		}
	}]
}
