{
	"type": "FeatureCollection",
	"crs": {
		"type": "name",
		"properties": {
			"name": "urn:ogc:def:crs:OGC:1.3:CRS84"
		}
	},
	"features": [{
		"type": "Feature",
		"properties": {
			"name": "Lewa",
			"stroke-opacity": 0.35,
			"fill-opacity": 0,
			"title": "Private Conservancies",
			"stroke": "#cacaca",
			"stroke-width": 2,
			"fill": "#555555"
		},
		"geometry": {
			"type": "Polygon",
			"coordinates": [[[37.49203048406859,
			0.167597370237746],
			[37.49181445794154,
			0.167383669809504],
			[37.49142029836967,
			0.167013508415053],
			[37.490976865741565,
			0.16666623967398],
			[37.490821472462905,
			0.166570832401049],
			[37.49040077557565,
			0.166307511584464],
			[37.48677708633625,
			0.169077481446417],
			[37.48067443977468,
			0.173663546457217],
			[37.47544739016484,
			0.177646767740647],
			[37.469598702297404,
			0.182156487783683],
			[37.46563767892531,
			0.18510904984402],
			[37.46464836733115,
			0.185878786427709],
			[37.463690331228904,
			0.18658270620234],
			[37.462936979573385,
			0.187140689611267],
			[37.462231954635705,
			0.187678644647015],
			[37.462223515469006,
			0.187679824084267],
			[37.46159182765506,
			0.187542402012343],
			[37.461323988198956,
			0.18752711540394],
			[37.46090453504009,
			0.187583042052942],
			[37.46056593756642,
			0.187638975834166],
			[37.46001508212567,
			0.187791555944146],
			[37.45992924619973,
			0.18693173800166],
			[37.45901743541283,
			0.172548081224984],
			[37.45890306903474,
			0.170268813666161],
			[37.45876843993977,
			0.168579709957991],
			[37.4585261133125,
			0.165425359599739],
			[37.45831072918012,
			0.162338848210961],
			[37.4580010519911,
			0.158635033283303],
			[37.457792445283424,
			0.154897306811971],
			[37.45756360243328,
			0.151335952770595],
			[37.45728765013032,
			0.146906306489281],
			[37.45704529278283,
			0.143751962400968],
			[37.456995646476884,
			0.14372003082749],
			[37.45703891193012,
			0.143580682426838],
			[37.45644963813474,
			0.13022481464809],
			[37.44613392249429,
			0.130414280624152],
			[37.43388520819787,
			0.130878669420084],
			[37.42151941365401,
			0.131328516291477],
			[37.39835411671193,
			0.141241052991436],
			[37.38761084730762,
			0.145971971821425],
			[37.38649178680369,
			0.146084548496794],
			[37.36327153746307,
			0.146815100854923],
			[37.35823586789999,
			0.146814722141756],
			[37.331211504375936,
			0.144446896343815],
			[37.33076387514841,
			0.144728502252008],
			[37.32309811718638,
			0.151036625197439],
			[37.30368192558534,
			0.167313624046991],
			[37.3048567738469,
			0.168552925831409],
			[37.30575188524712,
			0.16962322237029],
			[37.30659103114635,
			0.170862496498014],
			[37.30703855905871,
			0.1717074454386],
			[37.30815746167926,
			0.172890419484687],
			[37.308828780899766,
			0.173848044619359],
			[37.30899655578169,
			0.174692969433081],
			[37.309499971517006,
			0.176213853158421],
			[37.30888438660498,
			0.177621978342021],
			[37.3074296380061,
			0.178016132915444],
			[37.30524761356086,
			0.17756531049651],
			[37.30440839446571,
			0.17717094167318],
			[37.30401671077113,
			0.177508867916851],
			[37.3013866555786,
			0.181676824504149],
			[37.303063013678575,
			0.203137619142068],
			[37.332494337445475,
			0.191368198745167],
			[37.35002154548288,
			0.184482175105618],
			[37.35000385328361,
			0.184491529800045],
			[37.355488584280955,
			0.182538489461206],
			[37.35661383282329,
			0.182131603298423],
			[37.358479599629646,
			0.181444895088358],
			[37.36037364407577,
			0.180788878805115],
			[37.36109670402513,
			0.180552683664089],
			[37.36173435966346,
			0.184356957520583],
			[37.36251550754237,
			0.189084909377385],
			[37.36293976675686,
			0.191445500221459],
			[37.36507569956073,
			0.191004797684337],
			[37.366780405554074,
			0.190611536152227],
			[37.37377444407516,
			0.188909612960419],
			[37.38085608733499,
			0.187322998899202],
			[37.38367258012942,
			0.186672067103379],
			[37.38885332442308,
			0.194188415795415],
			[37.394342694185795,
			0.202147228771728],
			[37.39631325841657,
			0.204974789675954],
			[37.397332649637484,
			0.206417193850893],
			[37.39599094906792,
			0.206493369193879],
			[37.392303171838485,
			0.206752454769988],
			[37.388463792955605,
			0.207042047203861],
			[37.38436669983279,
			0.207327797470529],
			[37.38044775038071,
			0.207556328311226],
			[37.3788710704424,
			0.20771642082333],
			[37.3770935186561,
			0.207876489931494],
			[37.37306466940335,
			0.208146978205284],
			[37.37268566358631,
			0.208166017463851],
			[37.37207925268688,
			0.208188846694489],
			[37.37031686574207,
			0.208360363699912],
			[37.366867911175106,
			0.208566042121804],
			[37.365825643489764,
			0.208649876348341],
			[37.36608311559809,
			0.211053698913042],
			[37.36623836912791,
			0.212377712741893],
			[37.364657871958,
			0.212885011766234],
			[37.358665637354505,
			0.214822662135004],
			[37.35590641437439,
			0.215669410901503],
			[37.35506125215566,
			0.21556248418127],
			[37.35450412578937,
			0.215505190951807],
			[37.35487543910393,
			0.216512531595585],
			[37.35517096664612,
			0.217382503085466],
			[37.35534144182125,
			0.218080763679712],
			[37.355447532353956,
			0.218355493381253],
			[37.356148494083534,
			0.220103083656078],
			[37.35608013326028,
			0.221392724451053],
			[37.35463610383314,
			0.221693991144875],
			[37.354492019110594,
			0.222270120325531],
			[37.35426451295753,
			0.223220159916606],
			[37.35507545889875,
			0.22426952160264],
			[37.35715586554912,
			0.227055096486016],
			[37.35796301724933,
			0.228150246510377],
			[37.358436782166216,
			0.228039650188801],
			[37.35928954342329,
			0.227982513673977],
			[37.36386793379343,
			0.227654903122988],
			[37.36584635215025,
			0.227475796895643],
			[37.36627445200515,
			0.229036405485199],
			[37.367126849689136,
			0.232199595514367],
			[37.36898012311065,
			0.23269583351911],
			[37.36914288548207,
			0.234519688004676],
			[37.36953657706248,
			0.238571855911524],
			[37.369589593899086,
			0.238934338600518],
			[37.36914231739752,
			0.239376889446759],
			[37.3693847786908,
			0.240235419688422],
			[37.3699909193223,
			0.242471408293363],
			[37.3704379526998,
			0.244073996332771],
			[37.36997171614151,
			0.244569962258596],
			[37.36886868661559,
			0.245607658504982],
			[37.36869423535168,
			0.246519554613973],
			[37.36859184322971,
			0.247007932245635],
			[37.36828844625198,
			0.248587534642844],
			[37.36654886029879,
			0.248232471713916],
			[37.36599171251774,
			0.2483201597377],
			[37.36466138753781,
			0.248491693921803],
			[37.364069982289514,
			0.249773643719321],
			[37.36272825915086,
			0.250181737089676],
			[37.3623227026826,
			0.250353385756206],
			[37.36231123571003,
			0.251139385802543],
			[37.362238996488884,
			0.252970838605457],
			[37.36299320041927,
			0.253066321065527],
			[37.36364128431894,
			0.253173240287846],
			[37.365202756879874,
			0.253364214861388],
			[37.36540734313431,
			0.253978543664092],
			[37.366104438735604,
			0.256145865592304],
			[37.36807499887746,
			0.258217964094255],
			[37.37088330195478,
			0.25920274064009],
			[37.37175497652753,
			0.259500467690511],
			[37.372588760057724,
			0.259718062972607],
			[37.37352478793003,
			0.260630101821073],
			[37.37502168439601,
			0.262026794426346],
			[37.37513155713376,
			0.262332054026164],
			[37.37586276794523,
			0.264426895622898],
			[37.37652198309837,
			0.266392001476066],
			[37.37708674826535,
			0.266044860407601],
			[37.37786377428043,
			0.26556801667148],
			[37.37987234960431,
			0.266815975099899],
			[37.380535554879884,
			0.267258669270578],
			[37.3819682002632,
			0.267297016283614],
			[37.38236234232493,
			0.267491662284267],
			[37.382953654398165,
			0.267026239391574],
			[37.38288555553434,
			0.266095227672735],
			[37.38379901456625,
			0.265709974702463],
			[37.383799026962045,
			0.265614586533057],
			[37.38371572156977,
			0.265034606012386],
			[37.38390152024987,
			0.264382165034591],
			[37.38461027138297,
			0.264325024980699],
			[37.38553122220734,
			0.26463039184504],
			[37.386099770761014,
			0.264351928260373],
			[37.38644086512388,
			0.264458811540164],
			[37.38689935964076,
			0.26527922101435],
			[37.386796906300646,
			0.266214027933018],
			[37.387126562576114,
			0.266832197216527],
			[37.38717565265641,
			0.268224894294665],
			[37.38758872747601,
			0.268564536264111],
			[37.387827431348065,
			0.269121642400142],
			[37.38738010500144,
			0.269846544726335],
			[37.38783866525189,
			0.270151854756436],
			[37.38838067139445,
			0.269968777147305],
			[37.38847163853997,
			0.269926818616418],
			[37.38858916133627,
			0.269709345330826],
			[37.388884796039704,
			0.269659783429332],
			[37.388994708958265,
			0.269659798076794],
			[37.389468425301494,
			0.269984184643954],
			[37.389980039920225,
			0.270354367391743],
			[37.39020364374103,
			0.270453601588156],
			[37.39069252740544,
			0.270743652091072],
			[37.39109046100162,
			0.270945932121726],
			[37.391188912677435,
			0.271625121366228],
			[37.39122680363048,
			0.2717090706618],
			[37.391677733299346,
			0.272392123232382],
			[37.39187098509105,
			0.272727921757352],
			[37.39201499656602,
			0.27281188317207],
			[37.392401540006325,
			0.273166785539733],
			[37.39299650615395,
			0.27376210027233],
			[37.39307218449654,
			0.274689301986805],
			[37.39333362723446,
			0.275246414978861],
			[37.39345488745069,
			0.275414317836184],
			[37.39389448160499,
			0.275856986658576],
			[37.39427339349928,
			0.276585818355167],
			[37.39432549927766,
			0.276646910961886],
			[37.39753250167604,
			0.278655205636152],
			[37.40159884745429,
			0.281611781156267],
			[37.401550335540264,
			0.285965156122787],
			[37.401681742614755,
			0.288545850462691],
			[37.40162137221972,
			0.291934485974357],
			[37.401704974861595,
			0.293695146881148],
			[37.40368145883246,
			0.293659253434525],
			[37.40623290503629,
			0.293756093353699],
			[37.408161449930596,
			0.2939252005622],
			[37.409515014558046,
			0.294142460353922],
			[37.410569127620995,
			0.294239087313268],
			[37.41369554695844,
			0.294420423387076],
			[37.41508506138563,
			0.2945653351883],
			[37.416845934270235,
			0.29458970539945],
			[37.41867869286207,
			0.294529671110574],
			[37.42018800238439,
			0.294626360618113],
			[37.42208061108862,
			0.294903995697673],
			[37.422967032163555,
			0.29496442085505],
			[37.424236772522974,
			0.295049016720801],
			[37.42523101148187,
			0.295061217883919],
			[37.4267283593994,
			0.295085549495529],
			[37.428680876562446,
			0.295290837772467],
			[37.429567288117674,
			0.295435675526904],
			[37.43007040419628,
			0.295399568788],
			[37.430609464933525,
			0.295303170991501],
			[37.43102875216807,
			0.295110279959605],
			[37.43252623186488,
			0.294218096548471],
			[37.43480235770297,
			0.293169248213028],
			[37.43626384802722,
			0.292675016836693],
			[37.43724618703525,
			0.292156598504892],
			[37.43776129698023,
			0.292024016267115],
			[37.43845609359779,
			0.291855282244497],
			[37.44012123534574,
			0.291300780039257],
			[37.44246925301219,
			0.290167515406494],
			[37.44340365170777,
			0.289829980538643],
			[37.443882852870274,
			0.28950444137156],
			[37.444589661227226,
			0.289118634147703],
			[37.446278778526846,
			0.288443536810222],
			[37.44774030509768,
			0.2877201671123],
			[37.44947734164722,
			0.287045071498106],
			[37.45090289049894,
			0.286623184060531],
			[37.451441976661556,
			0.28637000767188],
			[37.45511973891606,
			0.284694229623573],
			[37.456078101766416,
			0.284356691921356],
			[37.45776721582598,
			0.283753941879104],
			[37.45967197839105,
			0.28297032526962],
			[37.4631580489619,
			0.281571877184685],
			[37.47314903382159,
			0.277919128334111],
			[37.4786236200027,
			0.276737990275529],
			[37.48953692795377,
			0.274098312193397],
			[37.49204065143595,
			0.273459463988878],
			[37.494927732010844,
			0.272639763223426],
			[37.49764706771907,
			0.272133595739988],
			[37.50412806466936,
			0.270120416693358],
			[37.51041735764209,
			0.268529294043021],
			[37.510418177378995,
			0.268363731497726],
			[37.52145407374965,
			0.265770089248214],
			[37.52120235524402,
			0.265051811489162],
			[37.52011136365805,
			0.263699685033391],
			[37.51893637693695,
			0.262854547136055],
			[37.51860073324388,
			0.2620517608169],
			[37.517887422988245,
			0.260910931282682],
			[37.51671248661905,
			0.259643298086196],
			[37.51650274930423,
			0.258798278255658],
			[37.51583139092765,
			0.257784204895983],
			[37.516544889796194,
			0.257319542360715],
			[37.51599948187752,
			0.25588298698938],
			[37.51679698342145,
			0.254826837224905],
			[37.5167551671522,
			0.253517090246835],
			[37.51688114193682,
			0.25288335873092],
			[37.517342855155526,
			0.252249666081763],
			[37.51730102288087,
			0.25106666809039],
			[37.51725922828014,
			0.249545672113518],
			[37.51763708206128,
			0.248235972859188],
			[37.51717558869449,
			0.246926177850049],
			[37.528758802703344,
			0.245068489274562],
			[37.528381174174726,
			0.244350197591925],
			[37.52745809298018,
			0.242491096809512],
			[37.52645103923645,
			0.240969987718299],
			[37.525318069110696,
			0.239575615867061],
			[37.523933217022226,
			0.238899465875901],
			[37.522884141232026,
			0.237885354356296],
			[37.52133152514814,
			0.236237441510589],
			[37.52057623913645,
			0.235054364708019],
			[37.520030771580274,
			0.234040310445396],
			[37.51872987442886,
			0.233195174886487],
			[37.52028273631895,
			0.232519344272363],
			[37.520240822356676,
			0.232012342053938],
			[37.51923375308854,
			0.230617991549707],
			[37.51801674591888,
			0.230195364803274],
			[37.51654795356154,
			0.229603712816151],
			[37.51545689790054,
			0.228716353296159],
			[37.5150793113079,
			0.227575571246748],
			[37.51352673858928,
			0.225505173816993],
			[37.51201602046178,
			0.224533274469252],
			[37.51058165530474,
			0.224172111199902],
			[37.51057905202906,
			0.224076806620624],
			[37.51052220455566,
			0.224015747799665],
			[37.50970732500053,
			0.223668424179812],
			[37.50954434733963,
			0.223626434423488],
			[37.509449587752464,
			0.223645504064682],
			[37.509343456402185,
			0.223676019696221],
			[37.50914256702143,
			0.223710341716476],
			[37.50899475058347,
			0.223668351304486],
			[37.50886588447826,
			0.223618734527646],
			[37.5086612248638,
			0.223473711734785],
			[37.508460349135916,
			0.223351585310759],
			[37.50827842944349,
			0.223214198159961],
			[37.50804344198046,
			0.223118778122947],
			[37.507846347528506,
			0.223111127484766],
			[37.507224732774624,
			0.223168300819394],
			[37.507001106796714,
			0.223164461331434],
			[37.50683813330306,
			0.223061418736506],
			[37.50661073218411,
			0.22290494719044],
			[37.50626961091488,
			0.222851489978753],
			[37.50606494252643,
			0.22279041620229],
			[37.50580721247415,
			0.222694994502685],
			[37.5056518226557,
			0.222572873463153],
			[37.50542442471675,
			0.222385875605402],
			[37.505106074183715,
			0.222034789258011],
			[37.5047384497673,
			0.221698961758062],
			[37.50427227614685,
			0.221397465188537],
			[37.504025919157804,
			0.221279150599831],
			[37.503813684202626,
			0.221069260828372],
			[37.503465010127975,
			0.220737249998083],
			[37.503116332598616,
			0.220451030517248],
			[37.50250612777065,
			0.220145704852514],
			[37.502051318826325,
			0.219901446139957],
			[37.501770848865554,
			0.219786944983611],
			[37.50148279795421,
			0.219687704617107],
			[37.501274330019676,
			0.219699130125628],
			[37.50111514201383,
			0.219672404301793],
			[37.500997649191575,
			0.219599892587869],
			[37.50089153141237,
			0.219504486702643],
			[37.50079299170333,
			0.219439607955163],
			[37.500683083798755,
			0.219328938521296],
			[37.50018278481821,
			0.219160993089404],
			[37.499307257995625,
			0.218878537763547],
			[37.498966195850116,
			0.218241265240913],
			[37.498666804083314,
			0.217829130185494],
			[37.4979960545813,
			0.2165240608162],
			[37.4979013203654,
			0.216291287867869],
			[37.49786344609982,
			0.21601273111448],
			[37.49774597921032,
			0.215676930432769],
			[37.49751862897181,
			0.215001513308891],
			[37.49744283769492,
			0.214856505237419],
			[37.49728366115008,
			0.214715304988668],
			[37.496912248039195,
			0.214371848337987],
			[37.49684782302246,
			0.214265000439415],
			[37.4965256911541,
			0.21384523136774],
			[37.49643852152004,
			0.213780353547535],
			[37.49628312388003,
			0.213742179796241],
			[37.49549477904051,
			0.213410129474056],
			[37.49528253308594,
			0.21332234576875],
			[37.49518399020786,
			0.213268914513328],
			[37.49512714108753,
			0.213226935550707],
			[37.49506650421222,
			0.213150613871445],
			[37.49503998261211,
			0.213047583673374],
			[37.494990733652585,
			0.212791922035172],
			[37.49486568818355,
			0.212444674678484],
			[37.494729261081915,
			0.212211898138556],
			[37.49463072814829,
			0.212078334636245],
			[37.494448820222225,
			0.211826474494766],
			[37.49435408004622,
			0.211647123640714],
			[37.49425933415789,
			0.211532641959386],
			[37.49422144124712,
			0.21142579685547],
			[37.494134270922395,
			0.21136855020395],
			[37.493956152777955,
			0.211124322662551],
			[37.49380079894836,
			0.210632071737175],
			[37.493687125416386,
			0.210261929435538],
			[37.49341429995927,
			0.20949874529463],
			[37.493213434649995,
			0.20930030571906],
			[37.49315659043837,
			0.20920108877889],
			[37.49314144267036,
			0.209067535766329],
			[37.49312629652781,
			0.208911086958857],
			[37.49320213865606,
			0.20851806953577],
			[37.49326282600104,
			0.208063996452561],
			[37.49322877769605,
			0.207384783923921],
			[37.493145436230265,
			0.206903986828123],
			[37.49261867988173,
			0.205961438196683],
			[37.49257700627029,
			0.205759199205072],
			[37.4923951567896,
			0.204854840456813],
			[37.491947911593826,
			0.204812825328168],
			[37.49172811231191,
			0.20442359442137],
			[37.49171298080358,
			0.204106884105805],
			[37.491697854219126,
			0.203736752327883],
			[37.491743352943075,
			0.203568860100608],
			[37.491800225507134,
			0.203358998394325],
			[37.491841933189534,
			0.203214002129848],
			[37.491967035858195,
			0.202939277721485],
			[37.49206938837978,
			0.202786656669274],
			[37.49233474128647,
			0.202393654756992],
			[37.49221726974747,
			0.202115093711791],
			[37.49221727608128,
			0.202046408558111],
			[37.49239168374954,
			0.201447347533151],
			[37.492437185802885,
			0.201241299048118],
			[37.4923424661255,
			0.200836816916997],
			[37.49203936268111,
			0.199558502649912],
			[37.49194463162753,
			0.199276127281959],
			[37.49169453789714,
			0.198566367001096],
			[37.49142930245218,
			0.197646740674027],
			[37.49138003907927,
			0.197551341414552],
			[37.49078886086522,
			0.196406553386618],
			[37.4905387480087,
			0.195933374769232],
			[37.49033787647939,
			0.195795988562885],
			[37.490311351304406,
			0.195700591451095],
			[37.4903492621184,
			0.195620463287522],
			[37.49039095908682,
			0.195570863338803],
			[37.49044781925528,
			0.195490736885115],
			[37.490588083506985,
			0.195216013585488],
			[37.492295003018086,
			0.190633549518286],
			[37.492325340672764,
			0.190454209666931],
			[37.492393589387206,
			0.190183296060047],
			[37.492484578075135,
			0.189923830948005],
			[37.49254903256025,
			0.18969489028819],
			[37.4925831633128,
			0.189465946405878],
			[37.49261349889377,
			0.189309501753249],
			[37.49266657579108,
			0.189168322210721],
			[37.49268934771621,
			0.18882871937671],
			[37.492715893812665,
			0.18865319519309],
			[37.49270453830363,
			0.188485299817214],
			[37.492678026219096,
			0.188233455379675],
			[37.49262498040891,
			0.18803884674227],
			[37.49262120165678,
			0.187901478285438],
			[37.492621217349644,
			0.187718321334392],
			[37.492575768208134,
			0.187321476690147],
			[37.49256819735415,
			0.187195554977074],
			[37.492568214616334,
			0.186993318296251],
			[37.49260234727504,
			0.18676437216069],
			[37.49273126299924,
			0.186218727912542],
			[37.49283744004799,
			0.185631106667146],
			[37.49294737071238,
			0.185478484823904],
			[37.49293499517914,
			0.185237118536109],
			[37.49305213999597,
			0.184777341887754],
			[37.49310580783191,
			0.184273477923323],
			[37.49321310953248,
			0.183661646705672],
			[37.493177416166255,
			0.182995817222198],
			[37.49303452003071,
			0.181772124067871],
			[37.493016738711766,
			0.180656413517188],
			[37.493124069353435,
			0.17968467598988],
			[37.49303479172161,
			0.17851497349609],
			[37.493177946521946,
			0.176625478113203],
			[37.493589127152624,
			0.175923695039159],
			[37.49417905255335,
			0.175275912333544],
			[37.49439358238877,
			0.174898028284996],
			[37.49455452510269,
			0.174052261457473],
			[37.49494781857233,
			0.17349443854764],
			[37.49568072865217,
			0.173026619607567],
			[37.49577014219945,
			0.172540752951999],
			[37.49593107830826,
			0.171766966724107],
			[37.49659249558512,
			0.171209164526916],
			[37.492033511771616,
			0.167656411835385],
			[37.49203048406859,
			0.167597370237746]]]
		}
	}]
}
