{
	"type": "FeatureCollection",
	"crs": {
		"type": "name",
		"properties": {
			"name": "urn:ogc:def:crs:OGC:1.3:CRS84"
		}
	},
	"features": [{
		"type": "Feature",
		"properties": {
			"name": "Sierra 9",
			"marker-size": "medium",
			"marker-symbol": "Ranger Stations.png",
			"title": "Ranger Stations",
			"GPS_X": 328,
			"GPS_Y": 17,
			"N4": 283,
			"N5": 170,
			"X": 37.457790,
			"Y": 0.153380
			},
		"geometry": {
			"type": "Point",
			"coordinates": [37.458633488315456,
			0.150662115791411]
		}
	},
	{
		"type": "Feature",
		"properties": {
			"name": "Sierra 10",
			"marker-size": "medium",
			"marker-symbol": "Ranger Stations.png",
			"title": "Ranger Stations",
			"GPS_X": 321,
			"GPS_Y": 16,
			"N4": 207,
			"N5": 162,
			"X": 37.389890,
			"Y": 0.145810
		},
		"geometry": {
			"type": "Point",
			"coordinates": [37.390732147747521,
			0.143092799597369]
		}
	},
	{
		"type": "Feature",
		"properties": {
			"name": "Sierra 11",
			"marker-size": "medium",
			"marker-symbol": "Ranger Stations.png",
			"title": "Ranger Stations",
			"GPS_X": 321,
			"GPS_Y": 19,
			"N4": 209,
			"N5": 187,
			"X": 37.391300,
			"Y": 0.168670
		},
		"geometry": {
			"type": "Point",
			"coordinates": [37.392142176507463,
			0.165950742704554]
		}
	},
	{
		"type": "Feature",
		"properties": {
			"name": "Sierra 12",
			"marker-size": "medium",
			"marker-symbol": "Ranger Stations.png",
			"title": "Ranger Stations",
			"GPS_X": 317,
			"GPS_Y": 24,
			"N4": 170,
			"N5": 239,
			"X": 37.356420,
			"Y": 0.215590
		},
		"geometry": {
			"type": "Point",
			"coordinates": [37.357261489857684,
			0.212866524381586]
		}
	},
	{
		"type": "Feature",
		"properties": {
			"name": "Sierra 13",
			"marker-size": "medium",
			"marker-symbol": "Ranger Stations.png",
			"title": "Ranger Stations",
			"GPS_X": 320,
			"GPS_Y": 30,
			"N4": 198,
			"N5": 295,
			"X": 37.381660,
			"Y": 0.266230
		},
		"geometry": {
			"type": "Point",
			"coordinates": [37.382501991535008,
			0.263501970427612]
		}
	},
	{
		"type": "Feature",
		"properties": {
			"name": "Sierra 14",
			"marker-size": "medium",
			"marker-symbol": "Ranger Stations.png",
			"title": "Ranger Stations",
			"GPS_X": 324,
			"GPS_Y": 31,
			"N4": 241,
			"N5": 314,
			"X": 37.420330,
			"Y": 0.283670
		},
		"geometry": {
			"type": "Point",
			"coordinates": [37.4211727562978,
			0.280940400272512]
		}
	},
	{
		"type": "Feature",
		"properties": {
			"name": "Sierra 16",
			"marker-size": "medium",
			"marker-symbol": "Ranger Stations.png",
			"title": "Ranger Stations",
			"GPS_X": 330,
			"GPS_Y": 28,
			"N4": 301,
			"N5": 280,
			"X": 37.474020,
			"Y": 0.252880
		},
		"geometry": {
			"type": "Point",
			"coordinates": [37.474863813664285,
			0.250153164411587]
		}
	},
	{
		"type": "Feature",
		"properties": {
			"name": "Sierra 17",
			"marker-size": "medium",
			"marker-symbol": "Ranger Stations.png",
			"title": "Ranger Stations",
			"GPS_X": 335,
			"GPS_Y": 29,
			"N4": 349,
			"N5": 290,
			"X": 37.517330,
			"Y": 0.261580
		},
		"geometry": {
			"type": "Point",
			"coordinates": [37.518174668338872,
			0.25885237928969]
		}
	},
	{
		"type": "Feature",
		"properties": {
			"name": "Sierra 18",
			"marker-size": "medium",
			"marker-symbol": "Ranger Stations.png",
			"title": "Ranger Stations",
			"GPS_X": 329,
			"GPS_Y": 24,
			"N4": 291,
			"N5": 242,
			"X": 37.464930,
			"Y": 0.218620
		},
		"geometry": {
			"type": "Point",
			"coordinates": [37.465773632280509,
			0.215896245886411]
		}
	}]
}