{"type": "FeatureCollection", "id": "Geofence_Warning", "features": [{"geometry": {"type": "MultiLineString", "coordinates": [[[37.29622324300004, -2.890123105999976], [37.30079029900003, -2.831157636999933], [37.34251246400004, -2.8144202889999406], [37.373834448000025, -2.8236853079999378], [37.40304656700005, -2.8226556199999777], [37.430904747000056, -2.8475131569999803], [37.46730753400004, -2.848052429999939], [37.483802774000026, -2.8356957769999553], [37.47245940000005, -2.8092681309999534], [37.49995446400004, -2.7938193169999295], [37.49204954100003, -2.770478364999974], [37.45149690900007, -2.754006836999963], [37.43603273800005, -2.7210443999999256], [37.40779979800004, -2.713814309999975], [37.40395309400003, -2.6955961089999505], [37.43559800400004, -2.679144047999955], [37.47271563900006, -2.686692824999966], [37.49161436400004, -2.7292656329999545], [37.51044746100007, -2.6668480639999643], [37.55815287900003, -2.694440947999965]]]}, "style": {}, "type": "Feature", "properties": {"name": "Ambo_Warn_1", "OBJECTID": "6704", "spatial_data_owners": "None", "globalid": "{90DDB47C-934D-4B52-B696-2B4BA8313126}", "created_date": "2016-07-15 13:00:28", "short_name": "None", "spatial_feature_owners": "None", "collect_user": "JAKEW", "created_user": "JAKEW", "collect_method": "None", "other_id": "None", "ground_verified": "None", "attributes": "{\"\":\"\"}", "shape.STLength()": "0.713657198937", "last_edited_date": "2017-06-21 19:39:13", "type": "Geofence_Warning", "collect_date": "None", "last_edited_user": "JOELM"}}, {"geometry": {"type": "MultiLineString", "coordinates": [[[37.57045603700004, -2.7108971189999806], [37.57318036200007, -2.7377265209999564], [37.57454351500007, -2.758101966999959], [37.57760704700007, -2.7811942219999537], [37.574548382000046, -2.7900247649999415]]]}, "style": {}, "type": "Feature", "properties": {"name": "Ambo_Warn_2", "OBJECTID": "6716", "spatial_data_owners": "None", "globalid": "{F69C6CA7-6913-4312-92C9-009BD4C3651E}", "created_date": "2016-07-15 13:00:28", "short_name": "None", "spatial_feature_owners": "None", "collect_user": "JAKEW", "created_user": "JAKEW", "collect_method": "None", "other_id": "None", "ground_verified": "None", "attributes": "{\"\":\"\"}", "shape.STLength()": "0.0800282006669", "last_edited_date": "2017-06-21 19:39:13", "type": "Geofence_Warning", "collect_date": "None", "last_edited_user": "JOELM"}}]}