{"type": "FeatureCollection", "id": "Geofence_Primary", "features": [{"geometry": {"type": "MultiLineString", "coordinates": [[[35.293546193000054, -1.215744291999954], [35.29983023600005, -1.202228285999979], [35.304707345000054, -1.2014061879999645], [35.31481013100006, -1.199254099999962], [35.315494228000034, -1.2058845369999744], [35.313532276000046, -1.20756498399993], [35.314635889000044, -1.2116089399999623], [35.31060226200003, -1.2148926529999358], [35.31378702200004, -1.2158736059999455], [35.31173253800006, -1.220043645999965], [35.30684462700003, -1.2179951789999564], [35.30429120700006, -1.2165933069999255], [35.301007137000056, -1.214560697999957], [35.29906026200007, -1.2193079569999554], [35.293546193000054, -1.215744291999954]]]}, "style": {}, "type": "Feature", "properties": {"name": "Ol Donyo Farm 2", "OBJECTID": "11329", "spatial_data_owners": "None", "globalid": "{B6CE7D83-EAC4-4D73-B870-7A4F96859E8E}", "created_date": "2015-08-05 05:28:04", "short_name": "None", "spatial_feature_owners": "None", "collect_user": "JWALL", "created_user": "JAKEW", "collect_method": "None", "other_id": "None", "ground_verified": "None", "attributes": "{\"\":\"\"}", "shape.STLength()": "0.0805751599493", "last_edited_date": "2017-06-21 19:39:13", "type": "Geofence_Primary", "collect_date": "None", "last_edited_user": "JOELM"}}]}