<kml xmlns="http://www.opengis.net/kml/2.2" xmlns:gx="http://www.google.com/kml/ext/2.2">
  <Folder id="feat_2">
    <name>Tracking Data</name>
    <visibility>1</visibility>
    <Folder id="feat_3">
      <name>elephant</name>
      <Folder id="feat_4">
        <name>Region 1</name>
        <NetworkLink id="feat_5">
          <name>Elephant 1</name>
          <visibility>0</visibility>
          <Link id="link_0">
            <href>http://testserver/api/v1.0/subject/d2ed403e-9419-41aa-8fa9-45a70e5ce2ed/kml?auth=X3C2RyayLTKT8PkEVRh8aJGuz4BFTW</href>
          </Link>
        </NetworkLink>
        <NetworkLink id="feat_6">
          <name>Elephant 2</name>
          <visibility>0</visibility>
          <Link id="link_1">
            <href>http://testserver/api/v1.0/subject/c25e17d0-0337-4f0c-9274-25e5ae4da7c8/kml?auth=X3C2RyayLTKT8PkEVRh8aJGuz4BFTW</href>
          </Link>
        </NetworkLink>
      </Folder>
      <Folder id="feat_7">
        <name>Region 2</name>
        <NetworkLink id="feat_8">
          <name>Elephant 3</name>
          <visibility>0</visibility>
          <Link id="link_2">
            <href>http://testserver/api/v1.0/subject/a873e49c-1cb5-4ad4-b29d-e4b8931036ba/kml?auth=X3C2RyayLTKT8PkEVRh8aJGuz4BFTW</href>
          </Link>
        </NetworkLink>
      </Folder>
    </Folder>
  </Folder>
</kml>
